[{"OBJECT_NAME":"SEEDS II (CO-66)","OBJECT_ID":"2008-021J","EPOCH":"2026-03-09T22:06:22.421376","MEAN_MOTION":15.29097236,"ECCENTRICITY":0.00014475,"INCLINATION":97.7519,"RA_OF_ASC_NODE":62.3611,"ARG_OF_PERICENTER":359.2618,"MEAN_ANOMALY":0.8619,"EPHEMERIS_TYPE":0,"CLASSIFICATION_TYPE":"U","NORAD_CAT_ID":32791,"ELEMENT_SET_NO":999,"REV_AT_EPOCH":97210,"BSTAR":0.00084213052,"MEAN_MOTION_DOT":0.00023758,"MEAN_MOTION_DDOT":0},{"OBJECT_NAME":"STARLINK-31562","OBJECT_ID":"2024-057W","EPOCH":"2026-03-09T09:54:20.456928","MEAN_MOTION":15.27579476,"ECCENTRICITY":8.827e-5,"INCLINATION":43.0007,"RA_OF_ASC_NODE":203.6196,"ARG_OF_PERICENTER":223.3898,"MEAN_ANOMALY":136.6884,"EPHEMERIS_TYPE":0,"CLASSIFICATION_TYPE":"U","NORAD_CAT_ID":59340,"ELEMENT_SET_NO":999,"REV_AT_EPOCH":10962,"BSTAR":-3.1737791e-5,"MEAN_MOTION_DOT":-1.135e-5,"MEAN_MOTION_DDOT":0}]
