SEEDS II (CO-66)        
1 32791U 08021J   26068.92109284  .00023758  00000+0  84213-3 0  9995
2 32791  97.7519  62.3611 0001448 359.2618   0.8619 15.29097235972108
STARLINK-31562          
1 59340U 24057W   26068.41273677 -.00001135  00000+0 -31738-4 0  9995
2 59340  43.0007 203.6196 0000882 223.3898 136.6884 15.27579476109624
